[{"OBJECT_NAME":"OBJECT D","OBJECT_ID":"2024-174D","EPOCH":"2026-03-10T00:15:10.483200","MEAN_MOTION":15.28039787,"ECCENTRICITY":0.00110644,"INCLINATION":97.4441,"RA_OF_ASC_NODE":80.4677,"ARG_OF_PERICENTER":212.9968,"MEAN_ANOMALY":147.0582,"EPHEMERIS_TYPE":0,"CLASSIFICATION_TYPE":"U","NORAD_CAT_ID":61241,"ELEMENT_SET_NO":999,"REV_AT_EPOCH":8076,"BSTAR":0.00036340099,"MEAN_MOTION_DOT":9.884e-5,"MEAN_MOTION_DDOT":0},{"OBJECT_NAME":"STARLINK-36549","OBJECT_ID":"2026-012T","EPOCH":"2026-03-09T01:56:02.070528","MEAN_MOTION":15.275761,"ECCENTRICITY":0.00015637,"INCLINATION":42.9999,"RA_OF_ASC_NODE":317.3954,"ARG_OF_PERICENTER":262.2929,"MEAN_ANOMALY":97.7745,"EPHEMERIS_TYPE":0,"CLASSIFICATION_TYPE":"U","NORAD_CAT_ID":67510,"ELEMENT_SET_NO":999,"REV_AT_EPOCH":767,"BSTAR":0.00081220898,"MEAN_MOTION_DOT":0.00022153,"MEAN_MOTION_DDOT":0}]
